{"fetched_at":"2026-03-29T16:36:15Z","count":15609,"tles":[{"name":"STARLINK-34863","line1":"1 66190U 25243P   26087.57884356  .00025271  00000+0  86208-3 0  9990","line2":"2 66190  53.1605 157.6693 0001229  77.1635 282.9503 15.30213257 23546","category":"Starlink"}]}