{
  "norad_id": 66190,
  "name": "STARLINK-34863",
  "history": [
    {
      "epoch": "2026-03-28T13:53:32.083584Z",
      "apogee_km": 476.0177587973021,
      "perigee_km": 474.33321458807313,
      "latitude_deg": 2.4787623261709464e-07,
      "longitude_deg": 123.28834853644935,
      "height_km": 475.88659482653765,
      "semi_major_axis_km": 6853.312486692687,
      "eccentricity": 0.0001229,
      "inclination_deg": 53.1605,
      "raan_deg": 157.6693,
      "arg_perigee_deg": 77.1635,
      "mean_anomaly_deg": 282.9503,
      "mean_motion_rev_day": 15.30213257
    }
  ]
}